NORAD_CAT_ID,OBJECT_NAME,OBJECT_TYPE,EPOCH,MEAN_MOTION,ECCENTRICITY,INCLINATION,RA_OF_ASC_NODE,ARG_OF_PERICENTER,MEAN_ANOMALY,BSTAR,MEAN_MOTION_DOT,MEAN_MOTION_DDOT,TLE_LINE0,TLE_LINE1,TLE_LINE2,SEMIMAJOR_AXIS,PERIOD,APOGEE,PERIGEE,DECAYED
51798.0,STARLINK-3634,PAYLOAD,2022-03-11 20:00:01,15.73218923,0.0001228,53.2192,73.3454,52.2459,70.4218,0.00022239,0.0003073,0.0,0 STARLINK-3634,1 51798U 22017AG  22070.83334491  .00030730  00000-0  22239-3 0  9992,2 51798  53.2192  73.3454 0001228  52.2459  70.4218 15.73218923  3512,6727.840999999999,91.532,350.532,348.88,0.0
51798.0,STARLINK-3634,PAYLOAD,2022-03-11 22:00:00,15.73234059,0.0001245,53.2191,72.9327,54.5118,180.393,1.403e-05,1.352e-05,0.0,0 STARLINK-3634,1 51798U 22017AG  22070.91667824  .00001352  00000-0  14030-4 0  9999,2 51798  53.2191  72.9327 0001245  54.5118 180.3930 15.73234059  2745,6727.7980000000025,91.531,350.501,348.825,0.0
51798.0,STARLINK-3634,PAYLOAD,2022-03-12 04:00:00,15.73248469,0.0001431,53.2194,71.697,55.0086,156.553,-0.00042852,-0.00060454,0.0,0 STARLINK-3634,1 51798U 22017AG  22071.16667824 -.00060454  00000-0 -42852-3 0  9999,2 51798  53.2194  71.6970 0001431  55.0086 156.5530 15.73248469  3567,6727.757,91.53,350.585,348.659,0.0
51798.0,STARLINK-3634,PAYLOAD,2022-03-12 12:00:00,15.73214133,0.0001465,53.2188,70.0485,46.5708,253.9657,0.00012815,0.00017413,0.0,0 STARLINK-3634,1 51798U 22017AG  22071.50001157  .00017413  00000-0  12815-3 0  9999,2 51798  53.2188  70.0485 0001465  46.5708 253.9657 15.73214133  3627,6727.855,91.532,350.706,348.7340000000001,0.0
51798.0,STARLINK-3634,PAYLOAD,2022-03-12 14:00:01,15.73249527,0.0001453999999999,53.2186,69.6356,48.8813,3.8828,-0.00040636,-0.00057384,0.0,0 STARLINK-3634,1 51798U 22017AG  22071.58334491 -.00057384  00000-0 -40636-3 0  9992,2 51798  53.2186  69.6356 0001454  48.8813   3.8828 15.73249527  2857,6727.754,91.53,350.597,348.641,0.0
51798.0,STARLINK-3634,PAYLOAD,2022-03-12 20:00:01,15.73171338,0.0001296999999999,53.2187,68.39699999999999,58.3816,331.1117,0.00050625,0.00070943,0.0,0 STARLINK-3634,1 51798U 22017AG  22071.83334491  .00070943  00000-0  50625-3 0  9993,2 51798  53.2187  68.3970 0001297  58.3816 331.1117 15.73171338  3673,6727.977,91.535,350.715,348.969,0.0
51798.0,STARLINK-3634,PAYLOAD,2022-03-12 22:00:00,15.73207276,0.0001291999999999,53.2187,67.9845,61.8139,79.8992,4.3964e-05,5.556e-05,0.0,0 STARLINK-3634,1 51798U 22017AG  22071.91667824  .00005556  00000-0  43964-4 0  9998,2 51798  53.2187  67.9845 0001292  61.8139  79.8992 15.73207276  2904,6727.874,91.533,350.6090000000001,348.87,0.0
51798.0,STARLINK-3634,PAYLOAD,2022-03-13 04:00:00,15.73217522,0.0001212,53.2189,66.7489,51.0484,67.3569,-0.0009481,-0.00131713,0.0,0 STARLINK-3634,1 51798U 22017AG  22072.16667824 -.00131713  00000-0 -94810-3 0  9998,2 51798  53.2189  66.7489 0001212  51.0484  67.3569 15.73217522  3721,6727.845,91.532,350.526,348.895,0.0
51798.0,STARLINK-3634,PAYLOAD,2022-03-13 12:00:00,15.73143227,0.0001204,53.2187,65.1004,41.817,165.4771,-3.7865e-05,-5.917e-05,0.0,0 STARLINK-3634,1 51798U 22017AG  22072.50001157 -.00005917  00000-0 -37865-4 0  9991,2 51798  53.2187  65.1004 0001204  41.8170 165.4771 15.73143227  3775,6728.057,91.536,350.732,349.112,0.0
51798.0,STARLINK-3634,PAYLOAD,2022-03-13 14:00:01,15.73179887,0.0001185,53.2189,64.6875,42.4235,277.0747,-0.00064906,-0.00090656,0.0,0 STARLINK-3634,1 51798U 22017AG  22072.58334491 -.00090656  00000-0 -64906-3 0  9998,2 51798  53.2189  64.6875 0001185  42.4235 277.0747 15.73179887  3004,6727.953,91.534,350.615,349.02,0.0
51798.0,STARLINK-3634,PAYLOAD,2022-03-13 22:00:01,15.73062571,0.000117,53.2192,63.0363,58.1503,350.2775,0.001056,0.00149362,0.0,0 STARLINK-3634,1 51798U 22017AG  22072.91668981  .00149362  00000-0  10560-2 0  9992,2 51798  53.2192  63.0363 0001170  58.1503 350.2775 15.73062571  3061,6728.2869999999975,91.541,350.939,349.365,0.0
51798.0,STARLINK-3634,PAYLOAD,2022-03-14 04:00:00,15.73261786,0.0001506999999999,53.2193,61.8005,59.3658,325.7927,-0.00017937,-0.00025784,0.0,0 STARLINK-3634,1 51798U 22017AG  22073.16667824 -.00025784  00000-0 -17937-3 0  9994,2 51798  53.2193  61.8005 0001507  59.3658 325.7927 15.73261786  3884,6727.719,91.53,350.598,348.57,0.0
51798.0,STARLINK-3634,PAYLOAD,2022-03-14 12:00:00,15.73236029,0.0001406999999999,53.2187,60.1514,53.3036,60.8705,0.00061894,0.00087286,0.0,0 STARLINK-3634,1 51798U 22017AG  22073.50001157  .00087286  00000-0  61894-3 0  9997,2 51798  53.2187  60.1514 0001407  53.3036  60.8705 15.73236029  3936,6727.792,91.531,350.60400000000016,348.711,0.0
51798.0,STARLINK-3634,PAYLOAD,2022-03-14 14:00:01,15.73271771,0.0001318,53.2187,59.7385,55.4066,171.0728,0.00025686,0.00035692,0.0,0 STARLINK-3634,1 51798U 22017AG  22073.58335648  .00035692  00000-0  25686-3 0  9993,2 51798  53.2187  59.7385 0001318  55.4066 171.0728 15.73271771  3161,6727.691,91.529,350.44199999999995,348.6690000000001,0.0
51798.0,STARLINK-3634,PAYLOAD,2022-03-14 20:00:01,15.73298491,0.0001123,53.2187,58.5,63.84,139.3442,-2.9297e-05,-4.747e-05,0.0,0 STARLINK-3634,1 51798U 22017AG  22073.83334491 -.00004747  00000-0 -29297-4 0  9998,2 51798  53.2187  58.5000 0001123  63.8400 139.3442 15.73298491  3989,6727.614000000001,91.527,350.235,348.724,0.0
51798.0,STARLINK-3634,PAYLOAD,2022-03-14 22:00:00,15.73287731,0.0001151,53.2189,58.0875,63.6745,251.7431,-0.00036936,-0.00052329,0.0,0 STARLINK-3634,1 51798U 22017AG  22073.91667824 -.00052329  00000-0 -36936-3 0  9992,2 51798  53.2189  58.0875 0001151  63.6745 251.7431 15.73287731  4003,6727.645,91.528,350.284,348.736,0.0
51798.0,STARLINK-3634,PAYLOAD,2022-03-15 00:00:00,15.73295884,0.0001181,53.219,57.6756,63.2743,4.3954,-0.00063896,-0.00089708,0.0,0 STARLINK-3634,1 51798U 22017AG  22074.00001157 -.00089708  00000-0 -63896-3 0  9990,2 51798  53.2190  57.6756 0001181  63.2743   4.3954 15.73295884  4016,6727.621999999999,91.528,350.281,348.69199999999995,0.0
51798.0,STARLINK-3634,PAYLOAD,2022-03-15 02:00:01,15.73306773,0.000119,53.219,57.2637,61.2125,118.7091,-0.0011,-0.00152918,0.0,0 STARLINK-3634,1 51798U 22017AG  22074.08334491 -.00152918  00000-0 -11000-2 0  9991,2 51798  53.2190  57.2637 0001190  61.2125 118.7091 15.73306773  3248,6727.590999999999,91.527,350.256,348.655,0.0
51798.0,STARLINK-3634,PAYLOAD,2022-03-15 20:00:01,15.72979066,0.0001243,53.2192,53.5516,64.8374,45.0398,0.0011159,0.0015745999999999,0.0,0 STARLINK-3634,1 51798U 22017AG  22074.83334491  .00157460  00000-0  11159-2 0  9994,2 51798  53.2192  53.5516 0001243  64.8374  45.0398 15.72979066  4141,6728.525,91.546,351.226,349.55400000000014,0.0
51798.0,STARLINK-3634,PAYLOAD,2022-03-15 22:00:00,15.72997972,0.0001272,53.2194,53.1393,65.5685,156.4801,0.0012427,0.00175955,0.0,0 STARLINK-3634,1 51798U 22017AG  22074.91667824  .00175955  00000-0  12427-2 0  9990,2 51798  53.2194  53.1393 0001272  65.5685 156.4801 15.72997972  3373,6728.471,91.545,351.19199999999995,349.48,0.0
51798.0,STARLINK-3634,PAYLOAD,2022-03-16 12:00:00,15.73172444,0.0001272,53.2191,50.2549,52.8326,234.617,0.00029518,0.0004096,0.0,0 STARLINK-3634,1 51798U 22017AG  22075.50001157  .00040960  00000-0  29518-3 0  9994,2 51798  53.2191  50.2549 0001272  52.8326 234.6170 15.73172444  4247,6727.974,91.535,350.695,348.983,0.0
51798.0,STARLINK-3634,PAYLOAD,2022-03-16 14:00:01,15.73188353,0.0001232,53.2192,49.8421,56.8436,342.8278,0.00017577,0.00024106,0.0,0 STARLINK-3634,1 51798U 22017AG  22075.58334491  .00024106  00000-0  17577-3 0  9998,2 51798  53.2192  49.8421 0001232  56.8436 342.8278 15.73188353  3485,6727.928000000001,91.534,350.622,348.964,0.0
51798.0,STARLINK-3634,PAYLOAD,2022-03-16 20:00:01,15.73172484,0.0001152,53.2192,48.6038,66.0986,310.26,0.00069983,0.00098639,0.0,0 STARLINK-3634,1 51798U 22017AG  22075.83334491  .00098639  00000-0  69983-3 0  9996,2 51798  53.2192  48.6038 0001152  66.0986 310.2600 15.73172484  3521,6727.974,91.535,350.61400000000015,349.064,0.0
51798.0,STARLINK-3634,PAYLOAD,2022-03-17 12:00:00,15.73244652,0.0001061,53.2191,45.3066,50.8623,143.4149,-8.2864e-05,-0.00012254,0.0,0 STARLINK-3634,1 51798U 22017AG  22076.50001157 -.00012254  00000-0 -82864-4 0  9996,2 51798  53.2191  45.3066 0001061  50.8623 143.4149 15.73244652  4402,6727.768,91.531,350.347,348.9190000000001,0.0
51798.0,STARLINK-3634,PAYLOAD,2022-03-17 14:00:01,15.73237675,9.79e-05,53.2193,44.8935,54.1294,252.3933,5.5266e-05,7.155e-05,0.0,0 STARLINK-3634,1 51798U 22017AG  22076.58334491  .00007155  00000-0  55266-4 0  9992,2 51798  53.2193  44.8935 0000979  54.1294 252.3933 15.73237675  3644,6727.788000000001,91.531,350.311,348.994,0.0
51798.0,STARLINK-3634,PAYLOAD,2022-03-17 22:00:00,15.73254426,0.0001011,53.2196,43.2431,65.7134,329.7813,0.00048014,0.00067464,0.0,0 STARLINK-3634,1 51798U 22017AG  22076.91667824  .00067464  00000-0  48014-3 0  9999,2 51798  53.2196  43.2431 0001011  65.7134 329.7813 15.73254426  3694,6727.74,91.53,350.285,348.925,0.0
51798.0,STARLINK-3634,PAYLOAD,2022-03-18 04:00:00,15.73320744,0.0001185,53.2193,42.0076,55.8819,316.3551,-0.00075075,-0.00105214,0.0,0 STARLINK-3634,1 51798U 22017AG  22077.16667824 -.00105214  00000-0 -75075-3 0  9992,2 51798  53.2193  42.0076 0001185  55.8819 316.3551 15.73320744  4515,6727.551,91.526,350.213,348.619,0.0
51798.0,STARLINK-3634,PAYLOAD,2022-03-18 14:00:01,15.73472208,0.0001167,53.218,39.9381,69.4622,144.0099,-0.0053671,-0.00702186,0.0,0 STARLINK-3634,1 51798U 22017AG  22077.58334491 -.00702186  00000-0 -53671-2 0  9997,2 51798  53.2180  39.9381 0001167  69.4622 144.0099 15.73472208  3726,6727.119000000002,91.517,349.769,348.199,0.0
51798.0,STARLINK-3634,PAYLOAD,2022-03-18 20:00:01,15.7289792,0.0001077,53.2174,38.6953,72.2052,118.0857,-0.0001892,-0.00026745,0.0,0 STARLINK-3634,1 51798U 22017AG  22077.83334491 -.00026745  00000-0 -18920-3 0  9994,2 51798  53.2174  38.6953 0001077  72.2052 118.0857 15.72897920  4612,6728.757,91.551,351.346,349.897,0.0
